<?xml version="1.0" encoding="UTF-8"?>
<ndm xmlns:xsi="http://www.w3.org/2001/XMLSchema-instance" xsi:noNamespaceSchemaLocation="https://sanaregistry.org/r/ndmxml_unqualified/ndmxml-2.0.0-master-2.0.xsd">
<omm id="CCSDS_OMM_VERS" version="2.0">
<header><CREATION_DATE/><ORIGINATOR/></header><body><segment><metadata><OBJECT_NAME>KUIPER-00035</OBJECT_NAME><OBJECT_ID>2025-088AA</OBJECT_ID><CENTER_NAME>EARTH</CENTER_NAME><REF_FRAME>TEME</REF_FRAME><TIME_SYSTEM>UTC</TIME_SYSTEM><MEAN_ELEMENT_THEORY>SGP4</MEAN_ELEMENT_THEORY></metadata><data><meanElements><EPOCH>2025-11-13T05:14:23.770752</EPOCH><MEAN_MOTION>14.79981719</MEAN_MOTION><ECCENTRICITY>.00059302</ECCENTRICITY><INCLINATION>51.9013</INCLINATION><RA_OF_ASC_NODE>269.1453</RA_OF_ASC_NODE><ARG_OF_PERICENTER>42.8690</ARG_OF_PERICENTER><MEAN_ANOMALY>317.2733</MEAN_ANOMALY></meanElements><tleParameters><EPHEMERIS_TYPE>0</EPHEMERIS_TYPE><CLASSIFICATION_TYPE>U</CLASSIFICATION_TYPE><NORAD_CAT_ID>63748</NORAD_CAT_ID><ELEMENT_SET_NO>999</ELEMENT_SET_NO><REV_AT_EPOCH>3026</REV_AT_EPOCH><BSTAR>.19208529E-2</BSTAR><MEAN_MOTION_DOT>.14473E-3</MEAN_MOTION_DOT><MEAN_MOTION_DDOT>0</MEAN_MOTION_DDOT></tleParameters></data></segment></body></omm>
<omm id="CCSDS_OMM_VERS" version="2.0">
<header><CREATION_DATE/><ORIGINATOR/></header><body><segment><metadata><OBJECT_NAME>KUIPER-00037</OBJECT_NAME><OBJECT_ID>2025-088AB</OBJECT_ID><CENTER_NAME>EARTH</CENTER_NAME><REF_FRAME>TEME</REF_FRAME><TIME_SYSTEM>UTC</TIME_SYSTEM><MEAN_ELEMENT_THEORY>SGP4</MEAN_ELEMENT_THEORY></metadata><data><meanElements><EPOCH>2025-11-13T05:15:27.489888</EPOCH><MEAN_MOTION>14.80077573</MEAN_MOTION><ECCENTRICITY>.00084251</ECCENTRICITY><INCLINATION>51.8994</INCLINATION><RA_OF_ASC_NODE>268.0848</RA_OF_ASC_NODE><ARG_OF_PERICENTER>1.0005</ARG_OF_PERICENTER><MEAN_ANOMALY>359.0973</MEAN_ANOMALY></meanElements><tleParameters><EPHEMERIS_TYPE>0</EPHEMERIS_TYPE><CLASSIFICATION_TYPE>U</CLASSIFICATION_TYPE><NORAD_CAT_ID>63749</NORAD_CAT_ID><ELEMENT_SET_NO>999</ELEMENT_SET_NO><REV_AT_EPOCH>3106</REV_AT_EPOCH><BSTAR>.13440803E-2</BSTAR><MEAN_MOTION_DOT>.10079E-3</MEAN_MOTION_DOT><MEAN_MOTION_DDOT>0</MEAN_MOTION_DDOT></tleParameters></data></segment></body></omm>
<omm id="CCSDS_OMM_VERS" version="2.0">
<header><CREATION_DATE/><ORIGINATOR/></header><body><segment><metadata><OBJECT_NAME>KUIPER-00038</OBJECT_NAME><OBJECT_ID>2025-088AC</OBJECT_ID><CENTER_NAME>EARTH</CENTER_NAME><REF_FRAME>TEME</REF_FRAME><TIME_SYSTEM>UTC</TIME_SYSTEM><MEAN_ELEMENT_THEORY>SGP4</MEAN_ELEMENT_THEORY></metadata><data><meanElements><EPOCH>2025-11-13T05:40:01.295904</EPOCH><MEAN_MOTION>14.80021878</MEAN_MOTION><ECCENTRICITY>.00076067</ECCENTRICITY><INCLINATION>51.9033</INCLINATION><RA_OF_ASC_NODE>253.0301</RA_OF_ASC_NODE><ARG_OF_PERICENTER>54.4264</ARG_OF_PERICENTER><MEAN_ANOMALY>305.7407</MEAN_ANOMALY></meanElements><tleParameters><EPHEMERIS_TYPE>0</EPHEMERIS_TYPE><CLASSIFICATION_TYPE>U</CLASSIFICATION_TYPE><NORAD_CAT_ID>63750</NORAD_CAT_ID><ELEMENT_SET_NO>999</ELEMENT_SET_NO><REV_AT_EPOCH>3027</REV_AT_EPOCH><BSTAR>-.43610749E-2</BSTAR><MEAN_MOTION_DOT>-.33392E-3</MEAN_MOTION_DOT><MEAN_MOTION_DDOT>0</MEAN_MOTION_DDOT></tleParameters></data></segment></body></omm>
<omm id="CCSDS_OMM_VERS" version="2.0">
<header><CREATION_DATE/><ORIGINATOR/></header><body><segment><metadata><OBJECT_NAME>KUIPER-00039</OBJECT_NAME><OBJECT_ID>2025-134A</OBJECT_ID><CENTER_NAME>EARTH</CENTER_NAME><REF_FRAME>TEME</REF_FRAME><TIME_SYSTEM>UTC</TIME_SYSTEM><MEAN_ELEMENT_THEORY>SGP4</MEAN_ELEMENT_THEORY></metadata><data><meanElements><EPOCH>2025-11-13T05:00:09.878688</EPOCH><MEAN_MOTION>14.80040198</MEAN_MOTION><ECCENTRICITY>.0011484</ECCENTRICITY><INCLINATION>51.9024</INCLINATION><RA_OF_ASC_NODE>28.1536</RA_OF_ASC_NODE><ARG_OF_PERICENTER>267.3672</ARG_OF_PERICENTER><MEAN_ANOMALY>92.5976</MEAN_ANOMALY></meanElements><tleParameters><EPHEMERIS_TYPE>0</EPHEMERIS_TYPE><CLASSIFICATION_TYPE>U</CLASSIFICATION_TYPE><NORAD_CAT_ID>64500</NORAD_CAT_ID><ELEMENT_SET_NO>999</ELEMENT_SET_NO><REV_AT_EPOCH>2282</REV_AT_EPOCH><BSTAR>.14489311E-2</BSTAR><MEAN_MOTION_DOT>.1088E-3</MEAN_MOTION_DOT><MEAN_MOTION_DDOT>0</MEAN_MOTION_DDOT></tleParameters></data></segment></body></omm>
<omm id="CCSDS_OMM_VERS" version="2.0">
<header><CREATION_DATE/><ORIGINATOR/></header><body><segment><metadata><OBJECT_NAME>KUIPER-00040</OBJECT_NAME><OBJECT_ID>2025-134B</OBJECT_ID><CENTER_NAME>EARTH</CENTER_NAME><REF_FRAME>TEME</REF_FRAME><TIME_SYSTEM>UTC</TIME_SYSTEM><MEAN_ELEMENT_THEORY>SGP4</MEAN_ELEMENT_THEORY></metadata><data><meanElements><EPOCH>2025-11-13T06:19:51.716064</EPOCH><MEAN_MOTION>14.79922208</MEAN_MOTION><ECCENTRICITY>.00163606</ECCENTRICITY><INCLINATION>51.9022</INCLINATION><RA_OF_ASC_NODE>39.0730</RA_OF_ASC_NODE><ARG_OF_PERICENTER>235.6073</ARG_OF_PERICENTER><MEAN_ANOMALY>124.3343</MEAN_ANOMALY></meanElements><tleParameters><EPHEMERIS_TYPE>0</EPHEMERIS_TYPE><CLASSIFICATION_TYPE>U</CLASSIFICATION_TYPE><NORAD_CAT_ID>64501</NORAD_CAT_ID><ELEMENT_SET_NO>999</ELEMENT_SET_NO><REV_AT_EPOCH>2267</REV_AT_EPOCH><BSTAR>.62604323E-2</BSTAR><MEAN_MOTION_DOT>.47932E-3</MEAN_MOTION_DOT><MEAN_MOTION_DDOT>0</MEAN_MOTION_DDOT></tleParameters></data></segment></body></omm>
<omm id="CCSDS_OMM_VERS" version="2.0">
<header><CREATION_DATE/><ORIGINATOR/></header><body><segment><metadata><OBJECT_NAME>KUIPER-00041</OBJECT_NAME><OBJECT_ID>2025-134C</OBJECT_ID><CENTER_NAME>EARTH</CENTER_NAME><REF_FRAME>TEME</REF_FRAME><TIME_SYSTEM>UTC</TIME_SYSTEM><MEAN_ELEMENT_THEORY>SGP4</MEAN_ELEMENT_THEORY></metadata><data><meanElements><EPOCH>2025-11-13T06:17:56.179392</EPOCH><MEAN_MOTION>14.80055370</MEAN_MOTION><ECCENTRICITY>.00135061</ECCENTRICITY><INCLINATION>51.9010</INCLINATION><RA_OF_ASC_NODE>40.4318</RA_OF_ASC_NODE><ARG_OF_PERICENTER>236.4150</ARG_OF_PERICENTER><MEAN_ANOMALY>123.5524</MEAN_ANOMALY></meanElements><tleParameters><EPHEMERIS_TYPE>0</EPHEMERIS_TYPE><CLASSIFICATION_TYPE>U</CLASSIFICATION_TYPE><NORAD_CAT_ID>64502</NORAD_CAT_ID><ELEMENT_SET_NO>999</ELEMENT_SET_NO><REV_AT_EPOCH>2265</REV_AT_EPOCH><BSTAR>.1429952E-2</BSTAR><MEAN_MOTION_DOT>.10742E-3</MEAN_MOTION_DOT><MEAN_MOTION_DDOT>0</MEAN_MOTION_DDOT></tleParameters></data></segment></body></omm>
<omm id="CCSDS_OMM_VERS" version="2.0">
<header><CREATION_DATE/><ORIGINATOR/></header><body><segment><metadata><OBJECT_NAME>KUIPER-00042</OBJECT_NAME><OBJECT_ID>2025-134D</OBJECT_ID><CENTER_NAME>EARTH</CENTER_NAME><REF_FRAME>TEME</REF_FRAME><TIME_SYSTEM>UTC</TIME_SYSTEM><MEAN_ELEMENT_THEORY>SGP4</MEAN_ELEMENT_THEORY></metadata><data><meanElements><EPOCH>2025-11-13T04:46:12.802656</EPOCH><MEAN_MOTION>14.80028134</MEAN_MOTION><ECCENTRICITY>.0012178</ECCENTRICITY><INCLINATION>51.9011</INCLINATION><RA_OF_ASC_NODE>36.7148</RA_OF_ASC_NODE><ARG_OF_PERICENTER>248.0998</ARG_OF_PERICENTER><MEAN_ANOMALY>111.8670</MEAN_ANOMALY></meanElements><tleParameters><EPHEMERIS_TYPE>0</EPHEMERIS_TYPE><CLASSIFICATION_TYPE>U</CLASSIFICATION_TYPE><NORAD_CAT_ID>64503</NORAD_CAT_ID><ELEMENT_SET_NO>999</ELEMENT_SET_NO><REV_AT_EPOCH>2270</REV_AT_EPOCH><BSTAR>.13569685E-2</BSTAR><MEAN_MOTION_DOT>.10172E-3</MEAN_MOTION_DOT><MEAN_MOTION_DDOT>0</MEAN_MOTION_DDOT></tleParameters></data></segment></body></omm>
<omm id="CCSDS_OMM_VERS" version="2.0">
<header><CREATION_DATE/><ORIGINATOR/></header><body><segment><metadata><OBJECT_NAME>KUIPER-00043</OBJECT_NAME><OBJECT_ID>2025-134E</OBJECT_ID><CENTER_NAME>EARTH</CENTER_NAME><REF_FRAME>TEME</REF_FRAME><TIME_SYSTEM>UTC</TIME_SYSTEM><MEAN_ELEMENT_THEORY>SGP4</MEAN_ELEMENT_THEORY></metadata><data><meanElements><EPOCH>2025-11-13T04:57:57.345408</EPOCH><MEAN_MOTION>14.80027523</MEAN_MOTION><ECCENTRICITY>.00030333</ECCENTRICITY><INCLINATION>51.9028</INCLINATION><RA_OF_ASC_NODE>29.1187</RA_OF_ASC_NODE><ARG_OF_PERICENTER>243.3056</ARG_OF_PERICENTER><MEAN_ANOMALY>116.7596</MEAN_ANOMALY></meanElements><tleParameters><EPHEMERIS_TYPE>0</EPHEMERIS_TYPE><CLASSIFICATION_TYPE>U</CLASSIFICATION_TYPE><NORAD_CAT_ID>64504</NORAD_CAT_ID><ELEMENT_SET_NO>999</ELEMENT_SET_NO><REV_AT_EPOCH>2281</REV_AT_EPOCH><BSTAR>.13491777E-2</BSTAR><MEAN_MOTION_DOT>.10103E-3</MEAN_MOTION_DOT><MEAN_MOTION_DDOT>0</MEAN_MOTION_DDOT></tleParameters></data></segment></body></omm>

</ndm>
