KUIPER-00035            
1 63748U 25088AA  25317.21833068  .00014473  00000+0  19209-2 0  9991
2 63748  51.9013 269.1453 0005930  42.8690 317.2733 14.79981719 30268
KUIPER-00037            
1 63749U 25088AB  25317.21906817  .00010079  00000+0  13441-2 0  9995
2 63749  51.8994 268.0848 0008425   1.0005 359.0973 14.80077573 31066
KUIPER-00038            
1 63750U 25088AC  25317.23612611 -.00033392  00000+0 -43611-2 0  9992
2 63750  51.9033 253.0301 0007606  54.4264 305.7407 14.80021878 30279
KUIPER-00039            
1 64500U 25134A   25317.20844767  .00010880  00000+0  14489-2 0  9990
2 64500  51.9024  28.1536 0011484 267.3672  92.5976 14.80040198 22821
KUIPER-00040            
1 64501U 25134B   25317.26379301  .00047932  00000+0  62604-2 0  9994
2 64501  51.9022  39.0730 0016360 235.6073 124.3343 14.79922208 22672
KUIPER-00041            
1 64502U 25134C   25317.26245578  .00010742  00000+0  14300-2 0  9992
2 64502  51.9010  40.4318 0013506 236.4150 123.5524 14.80055370 22651
KUIPER-00042            
1 64503U 25134D   25317.19875929  .00010172  00000+0  13570-2 0  9999
2 64503  51.9011  36.7148 0012178 248.0998 111.8670 14.80028134 22701
KUIPER-00043            
1 64504U 25134E   25317.20691372  .00010103  00000+0  13492-2 0  9997
2 64504  51.9028  29.1187 0003033 243.3056 116.7596 14.80027523 22816
